STARLINK-32732          
1 62488U 25003B   26068.02095088  .00028163  00000+0  10288-2 0  9992
2 62488  43.0035 292.3743 0002184 287.6864  72.3750 15.27585522 66458
OTTER                   
1 62623U 25009Q   26068.72300813  .00012198  00000+0  45151-3 0  9990
2 62623  97.4065 151.3812 0003573 310.7710  49.3219 15.27809545 63722
